CCSDS_OMM_VERS = 2.0
CREATION_DATE  = 
ORIGINATOR     = 

OBJECT_NAME    = SL-14 R/B
OBJECT_ID      = 1991-042B
CENTER_NAME    = EARTH
REF_FRAME      = TEME
TIME_SYSTEM    = UTC
MEAN_ELEMENT_THEORY = SGP/SGP4

EPOCH          = 2026-03-03T00:07:24.438144
MEAN_MOTION    = 14.81821155
ECCENTRICITY   = .00156
INCLINATION    = 82.4910
RA_OF_ASC_NODE = 226.4509
ARG_OF_PERICENTER = 262.5444
MEAN_ANOMALY   = 97.3997

EPHEMERIS_TYPE = 0
CLASSIFICATION_TYPE = U
NORAD_CAT_ID   = 21423
ELEMENT_SET_NO = 999
REV_AT_EPOCH   = 85208
BSTAR          = .71055E-4
MEAN_MOTION_DOT = .585E-5
MEAN_MOTION_DDOT = 0

CCSDS_OMM_VERS = 2.0
CREATION_DATE  = 
ORIGINATOR     = 

OBJECT_NAME    = ERS-1
OBJECT_ID      = 1991-050A
CENTER_NAME    = EARTH
REF_FRAME      = TEME
TIME_SYSTEM    = UTC
MEAN_ELEMENT_THEORY = SGP/SGP4

EPOCH          = 2026-03-03T00:34:56.135712
MEAN_MOTION    = 14.39443076
ECCENTRICITY   = .0031273
INCLINATION    = 98.7885
RA_OF_ASC_NODE = 80.0912
ARG_OF_PERICENTER = 220.5217
MEAN_ANOMALY   = 139.3642

EPHEMERIS_TYPE = 0
CLASSIFICATION_TYPE = U
NORAD_CAT_ID   = 21574
ELEMENT_SET_NO = 999
REV_AT_EPOCH   = 81477
BSTAR          = .13389E-3
MEAN_MOTION_DOT = .373E-5
MEAN_MOTION_DDOT = 0

CCSDS_OMM_VERS = 2.0
CREATION_DATE  = 
ORIGINATOR     = 

OBJECT_NAME    = ARIANE 40 R/B
OBJECT_ID      = 1991-050F
CENTER_NAME    = EARTH
REF_FRAME      = TEME
TIME_SYSTEM    = UTC
MEAN_ELEMENT_THEORY = SGP/SGP4

EPOCH          = 2026-03-03T03:50:59.869824
MEAN_MOTION    = 14.42887827
ECCENTRICITY   = .0004357
INCLINATION    = 98.2026
RA_OF_ASC_NODE = 114.6416
ARG_OF_PERICENTER = 95.3900
MEAN_ANOMALY   = 264.7788

EPHEMERIS_TYPE = 0
CLASSIFICATION_TYPE = U
NORAD_CAT_ID   = 21610
ELEMENT_SET_NO = 999
REV_AT_EPOCH   = 81805
BSTAR          = .11721E-3
MEAN_MOTION_DOT = .35E-5
MEAN_MOTION_DDOT = 0

CCSDS_OMM_VERS = 2.0
CREATION_DATE  = 
ORIGINATOR     = 

OBJECT_NAME    = INTERCOSMOS 25
OBJECT_ID      = 1991-086A
CENTER_NAME    = EARTH
REF_FRAME      = TEME
TIME_SYSTEM    = UTC
MEAN_ELEMENT_THEORY = SGP/SGP4

EPOCH          = 2026-03-03T03:15:35.048448
MEAN_MOTION    = 12.11978116
ECCENTRICITY   = .1487061
INCLINATION    = 82.6064
RA_OF_ASC_NODE = 313.9690
ARG_OF_PERICENTER = 131.0519
MEAN_ANOMALY   = 242.9013

EPHEMERIS_TYPE = 0
CLASSIFICATION_TYPE = U
NORAD_CAT_ID   = 21819
ELEMENT_SET_NO = 999
REV_AT_EPOCH   = 49589
BSTAR          = .29578E-3
MEAN_MOTION_DOT = .1543E-4
MEAN_MOTION_DDOT = 0

CCSDS_OMM_VERS = 2.0
CREATION_DATE  = 
ORIGINATOR     = 

OBJECT_NAME    = SL-8 R/B
OBJECT_ID      = 1992-008B
CENTER_NAME    = EARTH
REF_FRAME      = TEME
TIME_SYSTEM    = UTC
MEAN_ELEMENT_THEORY = SGP/SGP4

EPOCH          = 2026-03-03T02:46:33.000672
MEAN_MOTION    = 13.75969816
ECCENTRICITY   = .0035217
INCLINATION    = 82.9227
RA_OF_ASC_NODE = 272.6698
ARG_OF_PERICENTER = 151.2540
MEAN_ANOMALY   = 324.8285

EPHEMERIS_TYPE = 0
CLASSIFICATION_TYPE = U
NORAD_CAT_ID   = 21876
ELEMENT_SET_NO = 999
REV_AT_EPOCH   = 70851
BSTAR          = -.10117E-4
MEAN_MOTION_DOT = .6E-7
MEAN_MOTION_DDOT = 0

CCSDS_OMM_VERS = 2.0
CREATION_DATE  = 
ORIGINATOR     = 

OBJECT_NAME    = SL-8 R/B
OBJECT_ID      = 1992-020B
CENTER_NAME    = EARTH
REF_FRAME      = TEME
TIME_SYSTEM    = UTC
MEAN_ELEMENT_THEORY = SGP/SGP4

EPOCH          = 2026-03-03T05:01:47.583264
MEAN_MOTION    = 13.75548569
ECCENTRICITY   = .0027922
INCLINATION    = 82.9340
RA_OF_ASC_NODE = 158.5714
ARG_OF_PERICENTER = 317.6468
MEAN_ANOMALY   = 59.6723

EPHEMERIS_TYPE = 0
CLASSIFICATION_TYPE = U
NORAD_CAT_ID   = 21938
ELEMENT_SET_NO = 999
REV_AT_EPOCH   = 70024
BSTAR          = .71201E-4
MEAN_MOTION_DOT = .84E-6
MEAN_MOTION_DDOT = 0

CCSDS_OMM_VERS = 2.0
CREATION_DATE  = 
ORIGINATOR     = 

OBJECT_NAME    = USA 81
OBJECT_ID      = 1992-023A
CENTER_NAME    = EARTH
REF_FRAME      = TEME
TIME_SYSTEM    = UTC
MEAN_ELEMENT_THEORY = SGP/SGP4

EPOCH          = 2026-03-03T03:53:19.582944
MEAN_MOTION    = 14.32365305
ECCENTRICITY   = .0002601
INCLINATION    = 85.0098
RA_OF_ASC_NODE = 135.2067
ARG_OF_PERICENTER = 82.6295
MEAN_ANOMALY   = 277.5193

EPHEMERIS_TYPE = 0
CLASSIFICATION_TYPE = U
NORAD_CAT_ID   = 21949
ELEMENT_SET_NO = 999
REV_AT_EPOCH   = 9385
BSTAR          = .70326E-4
MEAN_MOTION_DOT = .21E-5
MEAN_MOTION_DDOT = 0

CCSDS_OMM_VERS = 2.0
CREATION_DATE  = 
ORIGINATOR     = 

OBJECT_NAME    = COSMOS 2219
OBJECT_ID      = 1992-076A
CENTER_NAME    = EARTH
REF_FRAME      = TEME
TIME_SYSTEM    = UTC
MEAN_ELEMENT_THEORY = SGP/SGP4

EPOCH          = 2026-03-03T03:42:35.039808
MEAN_MOTION    = 14.14088793
ECCENTRICITY   = .0019345
INCLINATION    = 71.0618
RA_OF_ASC_NODE = 31.7282
ARG_OF_PERICENTER = 215.7840
MEAN_ANOMALY   = 144.1988

EPHEMERIS_TYPE = 0
CLASSIFICATION_TYPE = U
NORAD_CAT_ID   = 22219
ELEMENT_SET_NO = 999
REV_AT_EPOCH   = 71745
BSTAR          = .17951E-3
MEAN_MOTION_DOT = .295E-5
MEAN_MOTION_DDOT = 0

CCSDS_OMM_VERS = 2.0
CREATION_DATE  = 
ORIGINATOR     = 

OBJECT_NAME    = SL-16 R/B
OBJECT_ID      = 1992-076B
CENTER_NAME    = EARTH
REF_FRAME      = TEME
TIME_SYSTEM    = UTC
MEAN_ELEMENT_THEORY = SGP/SGP4

EPOCH          = 2026-03-02T20:36:02.769696
MEAN_MOTION    = 14.16859712
ECCENTRICITY   = .0010647
INCLINATION    = 70.9997
RA_OF_ASC_NODE = 202.7622
ARG_OF_PERICENTER = 108.9627
MEAN_ANOMALY   = 2.9705

EPHEMERIS_TYPE = 0
CLASSIFICATION_TYPE = U
NORAD_CAT_ID   = 22220
ELEMENT_SET_NO = 999
REV_AT_EPOCH   = 72086
BSTAR          = .71182E-4
MEAN_MOTION_DOT = .95E-6
MEAN_MOTION_DDOT = 0

CCSDS_OMM_VERS = 2.0
CREATION_DATE  = 
ORIGINATOR     = 

OBJECT_NAME    = COSMOS 2221
OBJECT_ID      = 1992-080A
CENTER_NAME    = EARTH
REF_FRAME      = TEME
TIME_SYSTEM    = UTC
MEAN_ELEMENT_THEORY = SGP/SGP4

EPOCH          = 2026-03-03T01:59:55.017024
MEAN_MOTION    = 14.96170383
ECCENTRICITY   = .0013466
INCLINATION    = 82.5019
RA_OF_ASC_NODE = 285.4101
ARG_OF_PERICENTER = 210.3026
MEAN_ANOMALY   = 149.7419

EPHEMERIS_TYPE = 0
CLASSIFICATION_TYPE = U
NORAD_CAT_ID   = 22236
ELEMENT_SET_NO = 999
REV_AT_EPOCH   = 77980
BSTAR          = .17727E-3
MEAN_MOTION_DOT = .2025E-4
MEAN_MOTION_DDOT = 0

CCSDS_OMM_VERS = 2.0
CREATION_DATE  = 
ORIGINATOR     = 

OBJECT_NAME    = SL-16 R/B
OBJECT_ID      = 1992-093B
CENTER_NAME    = EARTH
REF_FRAME      = TEME
TIME_SYSTEM    = UTC
MEAN_ELEMENT_THEORY = SGP/SGP4

EPOCH          = 2026-03-03T04:00:44.285472
MEAN_MOTION    = 14.15449558
ECCENTRICITY   = .0006277
INCLINATION    = 71.0238
RA_OF_ASC_NODE = 17.9570
ARG_OF_PERICENTER = 300.6827
MEAN_ANOMALY   = 59.3677

EPHEMERIS_TYPE = 0
CLASSIFICATION_TYPE = U
NORAD_CAT_ID   = 22285
ELEMENT_SET_NO = 999
REV_AT_EPOCH   = 71223
BSTAR          = -.44478E-4
MEAN_MOTION_DOT = -.134E-5
MEAN_MOTION_DDOT = 0

CCSDS_OMM_VERS = 2.0
CREATION_DATE  = 
ORIGINATOR     = 

OBJECT_NAME    = COSMOS 2228
OBJECT_ID      = 1992-094A
CENTER_NAME    = EARTH
REF_FRAME      = TEME
TIME_SYSTEM    = UTC
MEAN_ELEMENT_THEORY = SGP/SGP4

EPOCH          = 2026-03-03T02:29:45.773664
MEAN_MOTION    = 14.97149568
ECCENTRICITY   = .0017216
INCLINATION    = 82.5145
RA_OF_ASC_NODE = 243.6173
ARG_OF_PERICENTER = 328.1763
MEAN_ANOMALY   = 31.8417

EPHEMERIS_TYPE = 0
CLASSIFICATION_TYPE = U
NORAD_CAT_ID   = 22286
ELEMENT_SET_NO = 999
REV_AT_EPOCH   = 77507
BSTAR          = .24305E-3
MEAN_MOTION_DOT = .284E-4
MEAN_MOTION_DDOT = 0

